OBJECT_NAME,OBJECT_ID,EPOCH,MEAN_MOTION,ECCENTRICITY,INCLINATION,RA_OF_ASC_NODE,ARG_OF_PERICENTER,MEAN_ANOMALY,EPHEMERIS_TYPE,CLASSIFICATION_TYPE,NORAD_CAT_ID,ELEMENT_SET_NO,REV_AT_EPOCH,BSTAR,MEAN_MOTION_DOT,MEAN_MOTION_DDOT
LUDI TANCE 1-01A (L-SAR 01A),2022-007A,2026-06-06T11:48:32.980032,14.88420807,.00016004,97.8104,165.0640,90.0342,270.1059,0,U,51284,999,23688,.83720507E-4,.722E-5,0
LUDI TANCE 1-01B (L-SAR 01B),2022-018A,2026-06-06T14:13:44.089824,14.88423030,.00015794,97.8109,165.1592,94.2372,265.9025,0,U,51822,999,23213,.80532828E-4,.692E-5,0
JILIN-1 GAOFEN 03D15,2022-019R,2026-06-05T22:08:09.218688,16.31769192,.0012717,97.3560,254.9435,264.8257,95.1587,0,U,51839,999,23834,.9485E-3,.4986191E-1,.24754E-5
2022-023F,2022-023F,2026-06-05T14:46:37.504704,15.18178709,.01289363,63.4460,312.8176,343.1404,16.5440,0,U,51951,999,23595,.6714487E-3,.16965E-3,0
MERIDIAN 10,2022-030A,2026-06-05T12:08:03.916896,2.00614940,.678052,62.6780,142.0470,272.8634,17.6773,0,U,52145,999,3079,0,.223E-5,0
OMNI-L1,2022-033A,2026-06-06T10:46:20.410176,14.82709966,.00042875,97.8389,236.8351,333.8855,26.2142,0,U,52157,999,22586,.31790665E-3,.2514E-4,0
ENMAP,2022-033C,2026-06-06T13:59:04.691616,14.74978456,.00014066,97.9790,239.9825,80.0646,280.0721,0,U,52159,999,22509,.58361485E-4,.342E-5,0
ARCSAT-1,2022-033E,2026-06-06T11:56:07.101888,15.53357717,.00039133,97.2747,249.6136,221.4280,138.6677,0,U,52161,999,23404,.27594585E-3,.17349E-3,0
GLOBAL-18,2022-034B,2026-06-06T03:16:05.044800,15.45795168,.0003508,52.9830,309.4363,219.6317,140.4432,0,U,52196,999,23525,.60048E-3,.29246E-3,0
GAOFEN-3 03,2022-035A,2026-06-06T14:45:21.242016,14.42214097,.00010749,98.4063,166.3489,93.8574,266.2738,0,U,52200,999,21932,.5980061E-4,.154E-5,0
DAQI-1,2022-039A,2026-06-06T15:25:52.830048,14.57670958,.00025222,98.1486,96.7133,305.4378,54.6585,0,U,52257,999,22040,.75843239E-4,.301E-5,0
BRO-6,2022-047AE,2026-06-06T14:47:05.102592,15.49826775,.00057361,97.3395,248.4742,112.0552,248.1309,0,U,52422,999,22951,.77968724E-3,.43536E-3,0
JILIN-1 GAOFEN 3D27,2022-048B,2026-06-06T09:53:08.970432,15.72917715,.00025384,97.5699,270.3926,98.3270,261.8281,0,U,52444,999,22778,.10004654E-2,.137501E-2,0
JILIN-1 GAOFEN 3D28,2022-048C,2026-06-06T14:54:34.775712,15.75637675,.00017407,97.5643,270.7305,146.3700,213.7675,0,U,52445,999,22786,.96862745E-3,.149799E-2,0
VIGORIDE-3,2022-057AE,2026-06-06T03:27:01.175040,15.27163249,.0008914,97.6599,296.8280,154.7626,205.4049,0,U,52760,999,22347,.28483E-3,.7516E-4,0
ION SCV-006,2022-057AF,2026-06-06T14:37:09.280416,15.45027521,.00181219,97.6095,305.7270,149.5462,210.6843,0,U,52761,999,22448,.3416351E-3,.16138E-3,0
SHERPA-AC1,2022-057AH,2026-06-05T20:42:54.604800,15.36102557,.00087539,97.6679,305.6196,127.7405,232.4633,0,U,52763,999,22396,.26930618E-3,.9397E-4,0
OMNI-L2,2022-057AR,2026-06-06T04:19:01.381440,14.81342137,.00067928,97.4719,220.2779,14.7141,345.4270,0,U,52771,999,21876,.222763E-3,.1693E-4,0
STEP CUBE LAB-II,2022-065D,2026-06-06T16:10:21.338112,14.63287110,.00098437,98.2221,301.6087,61.8392,298.3803,0,U,52897,999,20996,.20109693E-3,.99E-5,0
RANDEV,2022-065E,2026-06-06T14:37:27.840000,14.63673465,.00091915,98.2207,301.8916,62.5244,297.6891,0,U,52898,999,20970,.19613299E-3,.973E-5,0
SNUGLITE-II,2022-065F,2026-06-06T15:28:26.676480,14.64328514,.00085611,98.2192,302.4950,62.6309,297.5763,0,U,52899,999,20945,.22357998E-3,.1132E-4,0
MIMAN,2022-065G,2026-06-06T15:27:43.772832,14.61832830,.00087512,98.2249,300.1806,64.2228,295.9875,0,U,52900,999,20890,.14179564E-3,.661E-5,0
STARLINK-4362,2022-077A,2026-06-06T11:59:05.779680,15.05645603,.00018402,97.3993,336.9235,100.7841,259.3593,0,U,53043,999,21427,.39362631E-4,.51E-5,0
LARES-2,2022-080A,2026-06-03T13:15:00.088704,6.38965171,.00053798,70.1655,310.0052,337.8766,22.1504,0,U,53105,999,9079,0,-.12E-6,0
GREENCUBE (IO-117),2022-080E,2026-06-01T11:09:37.753056,6.42583280,.00088692,70.1435,303.7143,293.3663,66.6064,0,U,53109,999,9105,0,-.3E-7,0
STARLINK-4410,2022-084R,2026-06-06T14:00:04.000032,15.26938559,.00012003,97.5997,218.4507,86.4378,133.2308,0,U,53204,999,570,.53629137E-2,.144415E-2,0
COSMOS 2558,2022-089A,2026-06-06T12:43:12.137376,15.73022723,.0000735,97.2256,261.1778,177.8409,182.2859,0,U,53323,999,21615,.88295E-3,.121626E-2,0
